NORAD_CAT_ID,OBJECT_NAME,OBJECT_TYPE,EPOCH,MEAN_MOTION,ECCENTRICITY,INCLINATION,RA_OF_ASC_NODE,ARG_OF_PERICENTER,MEAN_ANOMALY,BSTAR,MEAN_MOTION_DOT,MEAN_MOTION_DDOT,TLE_LINE0,TLE_LINE1,TLE_LINE2,SEMIMAJOR_AXIS,PERIOD,APOGEE,PERIGEE,DECAYED
52367.0,STARLINK-3817,PAYLOAD,2023-05-31 21:43:04,15.08852976,9.62e-05,53.2172,55.6868,107.2087,252.9011,-0.00013704,-2.469e-05,0.0,0 STARLINK-3817,1 52367U 22045AN  23151.90490965 -.00002469  00000-0 -13704-3 0  9991,2 52367  53.2172  55.6868 0000962 107.2087 252.9011 15.08852976 63027,6917.841,95.437,540.371,539.04,0.0
52367.0,STARLINK-3817,PAYLOAD,2023-06-01 02:29:13,15.08843902,0.0001105,53.2171,54.7947,104.1854,255.9261,0.00011646,1.566e-05,0.0,0 STARLINK-3817,1 52367U 22045AN  23152.10362724  .00001566  00000-0  11646-3 0  9993,2 52367  53.2171  54.7947 0001105 104.1854 255.9261 15.08843902 63054,6917.868,95.437,540.498,538.969,0.0
52367.0,STARLINK-3817,PAYLOAD,2023-06-01 21:33:51,15.08840487,0.0001061,53.2171,51.2268,100.6244,259.4868,-2.2531e-06,-3.24e-06,0.0,0 STARLINK-3817,1 52367U 22045AN  23152.89851537 -.00000324  00000-0 -22531-5 0  9994,2 52367  53.2171  51.2268 0001061 100.6244 259.4868 15.08840487 63177,6917.879,95.438,540.478,539.01,0.0
52367.0,STARLINK-3817,PAYLOAD,2023-06-02 02:20:00,15.0884477,0.0001167,53.2175,50.3332,103.5462,256.5661,3.0243e-05,1.94e-06,0.0,0 STARLINK-3817,1 52367U 22045AN  23153.09723135  .00000194  00000-0  30243-4 0  9990,2 52367  53.2175  50.3332 0001167 103.5462 256.5661 15.08844770 63206,6917.866,95.437,540.538,538.923,0.0
52367.0,STARLINK-3817,PAYLOAD,2023-06-02 21:24:39,15.08835842,0.0001212,53.2179,46.7629,115.6197,244.492,-3.2584e-05,-8.06e-06,0.0,0 STARLINK-3817,1 52367U 22045AN  23153.89212076 -.00000806  00000-0 -32584-4 0  9997,2 52367  53.2179  46.7629 0001212 115.6197 244.4920 15.08835842 63325,6917.893,95.438,540.597,538.92,0.0
52367.0,STARLINK-3817,PAYLOAD,2023-06-03 02:10:48,15.08841225,0.0001214,53.2178,45.8718,91.3449,268.7682,4.996e-06,-2.08e-06,0.0,0 STARLINK-3817,1 52367U 22045AN  23154.09083732 -.00000208  00000-0  49960-5 0  9997,2 52367  53.2178  45.8718 0001214  91.3449 268.7682 15.08841225 63354,6917.877,95.437,540.581,538.902,0.0
52367.0,STARLINK-3817,PAYLOAD,2023-06-03 21:15:25,15.08844762,0.0001199,53.2179,42.3037,86.1574,273.9555,6.5243e-05,7.51e-06,0.0,0 STARLINK-3817,1 52367U 22045AN  23154.88571427  .00000751  00000-0  65243-4 0  9990,2 52367  53.2179  42.3037 0001199  86.1574 273.9555 15.08844762 63473,6917.866,95.437,540.56,538.901,0.0
52367.0,STARLINK-3817,PAYLOAD,2023-06-04 02:01:34,15.08848852,0.0001221,53.2177,41.4114,88.5147,271.5985,0.00010609,1.401e-05,0.0,0 STARLINK-3817,1 52367U 22045AN  23155.08442993  .00001401  00000-0  10609-3 0  9996,2 52367  53.2177  41.4114 0001221  88.5147 271.5985 15.08848852 63504,6917.853,95.437,540.563,538.874,0.0
52367.0,STARLINK-3817,PAYLOAD,2023-06-04 11:33:54,15.08809798,0.0001289,53.2173,39.6277,96.9157,263.1981,0.00053709,8.263e-05,0.0,0 STARLINK-3817,1 52367U 22045AN  23155.48188572  .00008263  00000-0  53709-3 0  9991,2 52367  53.2173  39.6277 0001289  96.9157 263.1981 15.08809798 63562,6917.973,95.439,540.729,538.946,0.0
52367.0,STARLINK-3817,PAYLOAD,2023-06-04 22:41:35,15.0884606,0.0001228,53.2172,37.546,88.7512,271.3621,0.00012196,1.654e-05,0.0,0 STARLINK-3817,1 52367U 22045AN  23155.94555092  .00001654  00000-0  12196-3 0  9999,2 52367  53.2172  37.5460 0001228  88.7512 271.3621 15.08846060 63632,6917.862,95.437,540.576,538.877,0.0
52367.0,STARLINK-3817,PAYLOAD,2023-06-05 03:27:44,15.08850165,0.0001085,53.2179,36.6552,79.9394,280.172,0.00016689,2.37e-05,0.0,0 STARLINK-3817,1 52367U 22045AN  23156.14426636  .00002370  00000-0  16689-3 0  9990,2 52367  53.2179  36.6552 0001085  79.9394 280.1720 15.08850165 63664,6917.849,95.437,540.465,538.964,0.0
52367.0,STARLINK-3817,PAYLOAD,2023-06-05 16:10:50,15.0883826,0.0001066,53.2171,34.2758,88.7516,271.3598,-6.7253e-05,-1.358e-05,0.0,0 STARLINK-3817,1 52367U 22045AN  23156.67420071 -.00001358  00000-0 -67253-4 0  9996,2 52367  53.2171  34.2758 0001066  88.7516 271.3598 15.08838260 63747,6917.886,95.438,540.488,539.013,0.0
52367.0,STARLINK-3817,PAYLOAD,2023-06-05 19:21:37,15.08839361,0.0001113,53.2172,33.6812,93.2245,266.8874,-5.8523e-05,-1.219e-05,0.0,0 STARLINK-3817,1 52367U 22045AN  23156.80667941 -.00001219  00000-0 -58523-4 0  9996,2 52367  53.2172  33.6812 0001113  93.2245 266.8874 15.08839361 63766,6917.882,95.438,540.517,538.977,0.0
52367.0,STARLINK-3817,PAYLOAD,2023-06-06 19:12:23,15.08838273,0.0001016,53.2173,29.2205,92.7609,267.3499,3.6626e-05,2.95e-06,0.0,0 STARLINK-3817,1 52367U 22045AN  23157.80027656  .00000295  00000-0  36626-4 0  9991,2 52367  53.2173  29.2205 0001016  92.7609 267.3499 15.08838273 63911,6917.886,95.438,540.454,539.048,0.0
52367.0,STARLINK-3817,PAYLOAD,2023-06-07 01:33:55,15.08848063,0.0001073,53.2178,28.0314,95.7508,264.3606,6.1173e-05,6.86e-06,0.0,0 STARLINK-3817,1 52367U 22045AN  23158.06522972  .00000686  00000-0  61173-4 0  9990,2 52367  53.2178  28.0314 0001073  95.7508 264.3606 15.08848063 63957,6917.856,95.437,540.463,538.978,0.0
52367.0,STARLINK-3817,PAYLOAD,2023-06-07 22:13:57,15.08833372,9.54e-05,53.2172,24.165,89.242,270.8682,2.9386e-05,1.8e-06,0.0,0 STARLINK-3817,1 52367U 22045AN  23158.92636420  .00000180  00000-0  29386-4 0  9998,2 52367  53.2172  24.1650 0000954  89.2420 270.8682 15.08833372 64087,6917.901,95.438,540.426,539.106,0.0
52367.0,STARLINK-3817,PAYLOAD,2023-06-08 23:40:07,15.08846818,0.0001205,53.219,19.4107,102.7247,257.388,9.1146e-05,1.163e-05,0.0,0 STARLINK-3817,1 52367U 22045AN  23159.98619766  .00001163  00000-0  91146-4 0  9994,2 52367  53.2190  19.4107 0001205 102.7247 257.3880 15.08846818 64246,6917.86,95.437,540.558,538.891,0.0
52367.0,STARLINK-3817,PAYLOAD,2023-06-09 07:37:03,15.08839645,0.0001298,53.2183,17.9205,85.7525,274.3616,2.2283e-05,6.7e-07,0.0,0 STARLINK-3817,1 52367U 22045AN  23160.31740243  .00000067  00000-0  22283-4 0  9996,2 52367  53.2183  17.9205 0001298  85.7525 274.3616 15.08839645 64292,6917.881,95.438,540.644,538.849,0.0
52367.0,STARLINK-3817,PAYLOAD,2023-06-09 17:09:22,15.08834612,0.0001187,53.2183,16.1362,79.8651,280.2475,5.2092e-05,5.41e-06,0.0,0 STARLINK-3817,1 52367U 22045AN  23160.71484923  .00000541  00000-0  52092-4 0  9998,2 52367  53.2183  16.1362 0001187  79.8651 280.2475 15.08834612 64353,6917.897,95.438,540.583,538.941,0.0
52367.0,STARLINK-3817,PAYLOAD,2023-06-10 07:27:50,15.08841243,0.0001139,53.2173,13.4622,90.5521,269.5601,9.5807e-05,1.237e-05,0.0,0 STARLINK-3817,1 52367U 22045AN  23161.31100440  .00001237  00000-0  95807-4 0  9998,2 52367  53.2173  13.4622 0001139  90.5521 269.5601 15.08841243 64443,6917.877,95.437,540.53,538.954,0.0
52367.0,STARLINK-3817,PAYLOAD,2023-06-10 13:49:23,15.08844691,0.0001072,53.217,12.2729,100.7694,259.3419,6.2546e-05,7.08e-06,0.0,0 STARLINK-3817,1 52367U 22045AN  23161.57596306  .00000708  00000-0  62546-4 0  9992,2 52367  53.2170  12.2729 0001072 100.7694 259.3419 15.08844691 64484,6917.866,95.437,540.473,538.989,0.0
52367.0,STARLINK-3817,PAYLOAD,2023-06-10 20:10:55,15.08846935,0.0001043,53.217,11.0835,92.7637,267.3475,5.0383e-05,5.14e-06,0.0,0 STARLINK-3817,1 52367U 22045AN  23161.84092169  .00000514  00000-0  50383-4 0  9991,2 52367  53.2170  11.0835 0001043  92.7637 267.3475 15.08846935 64523,6917.859,95.437,540.446,539.003,0.0
52367.0,STARLINK-3817,PAYLOAD,2023-06-11 13:40:10,15.08828784,0.000108,53.217,7.8118,91.9152,268.1964,0.00027863,4.148e-05,0.0,0 STARLINK-3817,1 52367U 22045AN  23162.56956711  .00004148  00000-0  27863-3 0  9996,2 52367  53.2170   7.8118 0001080  91.9152 268.1964 15.08828784 64630,6917.915,95.438,540.527,539.033,0.0
52367.0,STARLINK-3817,PAYLOAD,2023-06-11 20:01:43,15.08827398,0.0001006,53.2172,6.622,92.806,267.3047,0.0002745,4.082e-05,0.0,0 STARLINK-3817,1 52367U 22045AN  23162.83452975  .00004082  00000-0  27450-3 0  9998,2 52367  53.2172   6.6220 0001006  92.8060 267.3047 15.08827398 64676,6917.919,95.438,540.48,539.088,0.0
52367.0,STARLINK-3817,PAYLOAD,2023-06-11 23:12:28,15.08844884,0.0001107,53.217,6.0262,91.7551,268.3568,7.141e-05,8.49e-06,0.0,0 STARLINK-3817,1 52367U 22045AN  23162.96700149  .00000849  00000-0  71410-4 0  9994,2 52367  53.2170   6.0262 0001107  91.7551 268.3568 15.08844884 64699,6917.865,95.437,540.496,538.965,0.0
52367.0,STARLINK-3817,PAYLOAD,2023-06-12 07:09:24,15.08844677,0.0001045,53.2169,4.5397,88.8364,271.2748,6.9756e-05,8.23e-06,0.0,0 STARLINK-3817,1 52367U 22045AN  23163.29820062  .00000823  00000-0  69756-4 0  9990,2 52367  53.2169   4.5397 0001045  88.8364 271.2748 15.08844677 64748,6917.866,95.437,540.454,539.008,0.0
52367.0,STARLINK-3817,PAYLOAD,2023-06-12 19:52:29,15.08836647,0.0001092,53.2169,2.1607,90.0722,270.0395,0.00011149,1.487e-05,0.0,0 STARLINK-3817,1 52367U 22045AN  23163.82812484  .00001487  00000-0  11149-3 0  9997,2 52367  53.2169   2.1607 0001092  90.0722 270.0395 15.08836647 64823,6917.891,95.438,540.511,539.0,0.0
52367.0,STARLINK-3817,PAYLOAD,2023-06-12 23:03:15,15.08845147,0.0001329,53.2175,1.5654,98.8381,261.2762,2.4215e-05,9.8e-07,0.0,0 STARLINK-3817,1 52367U 22045AN  23163.96060064  .00000098  00000-0  24215-4 0  9997,2 52367  53.2175   1.5654 0001329  98.8381 261.2762 15.08845147 64842,6917.865,95.437,540.649,538.81,0.0
52367.0,STARLINK-3817,PAYLOAD,2023-06-13 13:21:44,15.0883186,0.0001164,53.2176,358.8882,94.6867,265.4258,8.9065e-05,1.13e-05,0.0,0 STARLINK-3817,1 52367U 22045AN  23164.55676696  .00001130  00000-0  89065-4 0  9999,2 52367  53.2176 358.8882 0001164  94.6867 265.4258 15.08831860 64937,6917.905,95.438,540.576,538.965,0.0
52367.0,STARLINK-3817,PAYLOAD,2023-06-13 19:43:16,15.08840329,0.0001062,53.2175,357.699,93.1625,266.9488,8.6084e-05,1.083e-05,0.0,0 STARLINK-3817,1 52367U 22045AN  23164.82172167  .00001083  00000-0  86084-4 0  9998,2 52367  53.2175 357.6990 0001062  93.1625 266.9488 15.08840329 64971,6917.879,95.438,540.479,539.01,0.0
